start=new Date('2022-06-26T00:00:00.000Z').valueOf();
sats=[{"LAUNCH_DATE":"2021-05-26","PERIOD":"95.592","TIME_SYSTEM":"UTC","RCS_SIZE":"LARGE","BSTAR":"0.00002323100000","NORAD_CAT_ID":"48645","EPOCH":"2022-06-25T21:24:25.852896","EPHEMERIS_TYPE":"0","RA_OF_ASC_NODE":"74.5749","ARG_OF_PERICENTER":"59.8554","PERIAPSIS":"546.131","REV_AT_EPOCH":"5981","OBJECT_TYPE":"PAYLOAD","TLE_LINE2":"2 48645  53.0557  74.5749 0001529  59.8554 300.2587 15.06407703 59814","ELEMENT_SET_NO":"999","CENTER_NAME":"EARTH","MEAN_MOTION":"15.06407703","DECAY_DATE":null,"FILE":"3502557","MEAN_MOTION_DOT":"0.00000065","INCLINATION":"53.0557","SITE":"AFETR","REF_FRAME":"TEME","OBJECT_ID":"2021-044H","MEAN_ELEMENT_THEORY":"SGP4","TLE_LINE1":"1 48645U 21044H   22176.89196589  .00000065  00000-0  23231-4 0  9997","SEMIMAJOR_AXIS":"6925.325","COUNTRY_CODE":"US","OBJECT_NAME":"STARLINK-2733","CLASSIFICATION_TYPE":"U","APOAPSIS":"548.249","MEAN_ANOMALY":"300.2587","GP_ID":"206855054","ECCENTRICITY":"0.00015290","MEAN_MOTION_DDOT":"0.0000000000000"},{"PERIAPSIS":"546.238","REV_AT_EPOCH":"5981","ARG_OF_PERICENTER":"85.5636","EPHEMERIS_TYPE":"0","RA_OF_ASC_NODE":"74.5766","EPOCH":"2022-06-25T21:19:07.618368","NORAD_CAT_ID":"48646","BSTAR":"0.00009816600000","RCS_SIZE":"LARGE","PERIOD":"95.592","LAUNCH_DATE":"2021-05-26","TIME_SYSTEM":"UTC","FILE":"3502557","DECAY_DATE":null,"MEAN_MOTION":"15.06395182","CENTER_NAME":"EARTH","ELEMENT_SET_NO":"999","TLE_LINE2":"2 48646  53.0565  74.5766 0001430  85.5636 274.5517 15.06395182 59814","OBJECT_TYPE":"PAYLOAD","SEMIMAJOR_AXIS":"6925.363","COUNTRY_CODE":"US","MEAN_ELEMENT_THEORY":"SGP4","TLE_LINE1":"1 48646U 21044J   22176.88828262  .00001181  00000-0  98166-4 0  9996","OBJECT_ID":"2021-044J","REF_FRAME":"TEME","SITE":"AFETR","INCLINATION":"53.0565","MEAN_MOTION_DOT":"0.00001181","MEAN_MOTION_DDOT":"0.0000000000000","ECCENTRICITY":"0.00014300","GP_ID":"206855304","MEAN_ANOMALY":"274.5517","APOAPSIS":"548.219","CLASSIFICATION_TYPE":"U","OBJECT_NAME":"STARLINK-2732"},{"MEAN_MOTION_DDOT":"0.0000000000000","GP_ID":"206854053","ECCENTRICITY":"0.00014650","MEAN_ANOMALY":"286.3130","APOAPSIS":"548.235","CLASSIFICATION_TYPE":"U","OBJECT_NAME":"STARLINK-2691","TLE_LINE1":"1 48647U 21044K   22176.88459652  .00001162  00000-0  96898-4 0  9999","MEAN_ELEMENT_THEORY":"SGP4","SEMIMAJOR_AXIS":"6925.356","COUNTRY_CODE":"US","OBJECT_ID":"2021-044K","REF_FRAME":"TEME","SITE":"AFETR","INCLINATION":"53.0550","MEAN_MOTION_DOT":"0.00001162","FILE":"3502557","DECAY_DATE":null,"CENTER_NAME":"EARTH","MEAN_MOTION":"15.06397718","ELEMENT_SET_NO":"999","TLE_LINE2":"2 48647  53.0550  74.6064 0001465  73.8020 286.3130 15.06397718 59815","OBJECT_TYPE":"PAYLOAD","ARG_OF_PERICENTER":"73.8020","PERIAPSIS":"546.206","REV_AT_EPOCH":"5981","EPHEMERIS_TYPE":"0","RA_OF_ASC_NODE":"74.6064","BSTAR":"0.00009689800000","NORAD_CAT_ID":"48647","EPOCH":"2022-06-25T21:13:49.139328","RCS_SIZE":"LARGE","LAUNCH_DATE":"2021-05-26","PERIOD":"95.592","TIME_SYSTEM":"UTC"},{"ELEMENT_SET_NO":"999","CENTER_NAME":"EARTH","MEAN_MOTION":"15.06391658","OBJECT_TYPE":"PAYLOAD","TLE_LINE2":"2 48648  53.0554  74.6955 0001608  63.6236 296.4918 15.06391658 59817","FILE":"3502557","DECAY_DATE":null,"LAUNCH_DATE":"2021-05-26","PERIOD":"95.593","TIME_SYSTEM":"UTC","RCS_SIZE":"LARGE","REV_AT_EPOCH":"5981","PERIAPSIS":"546.126","ARG_OF_PERICENTER":"63.6236","BSTAR":"0.00001166000000","EPOCH":"2022-06-25T21:35:05.062560","NORAD_CAT_ID":"48648","EPHEMERIS_TYPE":"0","RA_OF_ASC_NODE":"74.6955","CLASSIFICATION_TYPE":"U","OBJECT_NAME":"STARLINK-2521","GP_ID":"206854303","ECCENTRICITY":"0.00016080","MEAN_MOTION_DDOT":"0.0000000000000","APOAPSIS":"548.353","MEAN_ANOMALY":"296.4918","INCLINATION":"53.0554","SITE":"AFETR","MEAN_MOTION_DOT":"-0.00000108","OBJECT_ID":"2021-044L","MEAN_ELEMENT_THEORY":"SGP4","TLE_LINE1":"1 48648U 21044L   22176.89936415 -.00000108  00000-0  11660-4 0  9992","SEMIMAJOR_AXIS":"6925.374","COUNTRY_CODE":"US","REF_FRAME":"TEME"},{"OBJECT_ID":"2021-044M","SEMIMAJOR_AXIS":"6925.377","COUNTRY_CODE":"US","MEAN_ELEMENT_THEORY":"SGP4","TLE_LINE1":"1 48649U 21044M   22176.88091341  .00000791  00000-0  72015-4 0  9990","REF_FRAME":"TEME","INCLINATION":"53.0561","SITE":"AFETR","MEAN_MOTION_DOT":"0.00000791","ECCENTRICITY":"0.00016170","GP_ID":"206855553","MEAN_MOTION_DDOT":"0.0000000000000","APOAPSIS":"548.362","MEAN_ANOMALY":"303.2371","CLASSIFICATION_TYPE":"U","OBJECT_NAME":"STARLINK-2673","PERIAPSIS":"546.123","REV_AT_EPOCH":"5980","ARG_OF_PERICENTER":"56.8773","NORAD_CAT_ID":"48649","EPOCH":"2022-06-25T21:08:30.918624","BSTAR":"0.00007201500000","EPHEMERIS_TYPE":"0","RA_OF_ASC_NODE":"74.6124","LAUNCH_DATE":"2021-05-26","PERIOD":"95.593","TIME_SYSTEM":"UTC","RCS_SIZE":"LARGE","FILE":"3502557","DECAY_DATE":null,"ELEMENT_SET_NO":"999","MEAN_MOTION":"15.06390565","CENTER_NAME":"EARTH","OBJECT_TYPE":"PAYLOAD","TLE_LINE2":"2 48649  53.0561  74.6124 0001617  56.8773 303.2371 15.06390565 59809"},{"OBJECT_ID":"2021-044N","TLE_LINE1":"1 48650U 21044N   22176.87722056  .00000127  00000-0  27432-4 0  9991","MEAN_ELEMENT_THEORY":"SGP4","COUNTRY_CODE":"US","SEMIMAJOR_AXIS":"6925.355","REF_FRAME":"TEME","INCLINATION":"53.0552","SITE":"AFETR","MEAN_MOTION_DOT":"0.00000127","GP_ID":"206855803","ECCENTRICITY":"0.00014860","MEAN_MOTION_DDOT":"0.0000000000000","APOAPSIS":"548.249","MEAN_ANOMALY":"284.3176","CLASSIFICATION_TYPE":"U","OBJECT_NAME":"STARLINK-2672","REV_AT_EPOCH":"5980","PERIAPSIS":"546.191","ARG_OF_PERICENTER":"75.7978","BSTAR":"0.00002743200000","EPOCH":"2022-06-25T21:03:11.856384","NORAD_CAT_ID":"48650","RA_OF_ASC_NODE":"74.6451","EPHEMERIS_TYPE":"0","LAUNCH_DATE":"2021-05-26","PERIOD":"95.592","TIME_SYSTEM":"UTC","RCS_SIZE":"LARGE","FILE":"3502557","DECAY_DATE":null,"ELEMENT_SET_NO":"999","CENTER_NAME":"EARTH","MEAN_MOTION":"15.06397781","OBJECT_TYPE":"PAYLOAD","TLE_LINE2":"2 48650  53.0552  74.6451 0001486  75.7978 284.3176 15.06397781 59804"},{"APOAPSIS":"548.340","MEAN_ANOMALY":"291.4282","GP_ID":"206854553","ECCENTRICITY":"0.00015920","MEAN_MOTION_DDOT":"0.0000000000000","OBJECT_NAME":"STARLINK-2731","CLASSIFICATION_TYPE":"U","REF_FRAME":"TEME","OBJECT_ID":"2021-044P","MEAN_ELEMENT_THEORY":"SGP4","TLE_LINE1":"1 48651U 21044P   22176.87354036  .00000964  00000-0  83647-4 0  9990","COUNTRY_CODE":"US","SEMIMAJOR_AXIS":"6925.372","MEAN_MOTION_DOT":"0.00000964","INCLINATION":"53.0560","SITE":"AFETR","DECAY_DATE":null,"FILE":"3502557","OBJECT_TYPE":"PAYLOAD","TLE_LINE2":"2 48651  53.0560  74.6585 0001592  68.6877 291.4282 15.06392251 59803","ELEMENT_SET_NO":"999","CENTER_NAME":"EARTH","MEAN_MOTION":"15.06392251","BSTAR":"0.00008364700000","EPOCH":"2022-06-25T20:57:53.887104","NORAD_CAT_ID":"48651","EPHEMERIS_TYPE":"0","RA_OF_ASC_NODE":"74.6585","REV_AT_EPOCH":"5980","PERIAPSIS":"546.135","ARG_OF_PERICENTER":"68.6877","PERIOD":"95.593","LAUNCH_DATE":"2021-05-26","TIME_SYSTEM":"UTC","RCS_SIZE":"LARGE"},{"REF_FRAME":"TEME","OBJECT_ID":"2021-044Q","SEMIMAJOR_AXIS":"6925.350","COUNTRY_CODE":"US","MEAN_ELEMENT_THEORY":"SGP4","TLE_LINE1":"1 48652U 21044Q   22176.93619834 -.00001597  00000-0 -88303-4 0  9997","MEAN_MOTION_DOT":"-0.00001597","INCLINATION":"53.0547","SITE":"AFETR","APOAPSIS":"548.335","MEAN_ANOMALY":"298.0142","ECCENTRICITY":"0.00016170","GP_ID":"206854803","MEAN_MOTION_DDOT":"0.0000000000000","OBJECT_NAME":"STARLINK-2727","CLASSIFICATION_TYPE":"U","NORAD_CAT_ID":"48652","EPOCH":"2022-06-25T22:28:07.536576","BSTAR":"-0.00008830300000","RA_OF_ASC_NODE":"74.3809","EPHEMERIS_TYPE":"0","ARG_OF_PERICENTER":"62.1010","PERIAPSIS":"546.095","REV_AT_EPOCH":"5981","PERIOD":"95.592","LAUNCH_DATE":"2021-05-26","TIME_SYSTEM":"UTC","RCS_SIZE":"LARGE","DECAY_DATE":null,"FILE":"3502557","OBJECT_TYPE":"PAYLOAD","TLE_LINE2":"2 48652  53.0547  74.3809 0001617  62.1010 298.0142 15.06399630 59818","ELEMENT_SET_NO":"999","MEAN_MOTION":"15.06399630","CENTER_NAME":"EARTH"},{"COUNTRY_CODE":"US","SEMIMAJOR_AXIS":"6925.361","TLE_LINE1":"1 48653U 21044R   22176.86616294  .00002182  00000-0  16539-3 0  9997","MEAN_ELEMENT_THEORY":"SGP4","OBJECT_ID":"2021-044R","REF_FRAME":"TEME","SITE":"AFETR","INCLINATION":"53.0571","MEAN_MOTION_DOT":"0.00002182","MEAN_MOTION_DDOT":"0.0000000000000","ECCENTRICITY":"0.00017160","GP_ID":"206855055","MEAN_ANOMALY":"286.4451","APOAPSIS":"548.414","CLASSIFICATION_TYPE":"U","OBJECT_NAME":"STARLINK-2720","ARG_OF_PERICENTER":"73.6726","PERIAPSIS":"546.037","REV_AT_EPOCH":"5980","EPHEMERIS_TYPE":"0","RA_OF_ASC_NODE":"74.6907","EPOCH":"2022-06-25T20:47:16.478016","NORAD_CAT_ID":"48653","BSTAR":"0.00016539000000","RCS_SIZE":"LARGE","PERIOD":"95.592","LAUNCH_DATE":"2021-05-26","TIME_SYSTEM":"UTC","FILE":"3502557","DECAY_DATE":null,"MEAN_MOTION":"15.06395978","CENTER_NAME":"EARTH","ELEMENT_SET_NO":"999","TLE_LINE2":"2 48653  53.0571  74.6907 0001716  73.6726 286.4451 15.06395978 59803","OBJECT_TYPE":"PAYLOAD"},{"FILE":"3502557","DECAY_DATE":null,"CENTER_NAME":"EARTH","MEAN_MOTION":"15.06371750","ELEMENT_SET_NO":"999","TLE_LINE2":"2 48654  53.0552  74.7019 0001029  76.0846 284.0257 15.06371750 59805","OBJECT_TYPE":"PAYLOAD","PERIAPSIS":"546.588","REV_AT_EPOCH":"5980","ARG_OF_PERICENTER":"76.0846","EPHEMERIS_TYPE":"0","RA_OF_ASC_NODE":"74.7019","BSTAR":"0.00032534000000","NORAD_CAT_ID":"48654","EPOCH":"2022-06-25T20:41:59.192160","RCS_SIZE":"LARGE","LAUNCH_DATE":"2021-05-26","PERIOD":"95.594","TIME_SYSTEM":"UTC","MEAN_MOTION_DDOT":"0.0000000000000","GP_ID":"206855305","ECCENTRICITY":"0.00010290","MEAN_ANOMALY":"284.0257","APOAPSIS":"548.013","CLASSIFICATION_TYPE":"U","OBJECT_NAME":"STARLINK-2651","TLE_LINE1":"1 48654U 21044S   22176.86249065  .00004564  00000-0  32534-3 0  9995","MEAN_ELEMENT_THEORY":"SGP4","SEMIMAJOR_AXIS":"6925.435","COUNTRY_CODE":"US","OBJECT_ID":"2021-044S","REF_FRAME":"TEME","SITE":"AFETR","INCLINATION":"53.0552","MEAN_MOTION_DOT":"0.00004564"}];
